COMMENT,ORIGINATOR,NORAD_CAT_ID,OBJECT_NAME,OBJECT_TYPE,CLASSIFICATION_TYPE,INTLDES,EPOCH,EPOCH_MICROSECONDS,MEAN_MOTION,ECCENTRICITY,INCLINATION,RA_OF_ASC_NODE,ARG_OF_PERICENTER,MEAN_ANOMALY,EPHEMERIS_TYPE,ELEMENT_SET_NO,REV_AT_EPOCH,BSTAR,MEAN_MOTION_DOT,MEAN_MOTION_DDOT,FILE,TLE_LINE0,TLE_LINE1,TLE_LINE2,OBJECT_ID,OBJECT_NUMBER,SEMIMAJOR_AXIS,PERIOD,APOGEE,PERIGEE
"GENERATED VIA SPACETRACK.ORG API","JSPOC","33414","VENESAT-1","PAYLOAD","U","08055A","2016-01-08 17:54:29","206368","1.00269046","0.0001566","0.02","215.5108","77.8891","4.923","0","999","2632","0","-2.3e-06","0","1977855","0 VENESAT-1","1 33414U 08055A   16008.74617137 -.00000230  00000-0  00000+0 0  9999","2 33414   0.0200 215.5108 0001566  77.8891   4.9230  1.00269046 26328","2008-055A","33414","42165.499","1436.136","35793.967","35780.761"
"GENERATED VIA SPACETRACK.ORG API","JSPOC","36795","CARTOSAT 2B","PAYLOAD","U","10035A","2016-01-08 17:54:40","199040","14.7864101","0.0013564","97.9982","69.3806","291.8762","68.0998","0","999","29653","4.6535e-05","2.88e-06","0","1977770","0 CARTOSAT 2B","1 36795U 10035A   16008.74629860  .00000288  00000-0  46535-4 0  9991","2 36795  97.9982  69.3806 0013564 291.8762  68.0998 14.78641010296539","2010-035A","36795","7011.754","97.386","643.129","624.108"
"GENERATED VIA SPACETRACK.ORG API","JSPOC","27060","GONETS D1 9","PAYLOAD","U","01058F","2016-01-08 17:54:47","911968","12.62988823","0.0007427","82.54","124.2414","317.7512","42.3009","0","999","64688","-3.1879e-05","5e-08","0","1977793","0 GONETS D1 9","1 27060U 01058F   16008.74638787  .00000005  00000-0 -31879-4 0  9992","2 27060  82.5400 124.2414 0007427 317.7512  42.3009 12.62988823646889","2001-058F","27060","7788.769","114.015","1416.418","1404.849"
"GENERATED VIA SPACETRACK.ORG API","JSPOC","10355","SL-8 R/B","ROCKET BODY","U","77087B","2016-01-08 17:54:56","717856","13.75750986","0.0034946","82.9711","76.3153","80.8287","67.7544","0","999","92322","1.6911e-05","3.2e-07","0","1978186","0 SL-8 R/B","1 10355U 77087B   16008.74648979 +.00000032 +00000-0 +16911-4 0  9999","2 10355 082.9711 076.3153 0034946 080.8287 067.7544 13.75750986923220","1977-087B","10355","7357.133","104.670","1004.708","953.287"
"GENERATED VIA SPACETRACK.ORG API","JSPOC","8292","COSMOS 768","PAYLOAD","U","75086H","2016-01-08 17:55:15","777696","12.46064929","0.0013406","74.0104","109.2543","215.5833","299.7964","0","999","83385","-4.3875e-05","-2.2e-07","0","1977816","0 COSMOS 768","1 08292U 75086H   16008.74671039 -.00000022  00000-0 -43875-4 0  9996","2 08292  74.0104 109.2543 0013406 215.5833 299.7964 12.46064929833850","1975-086H","8292","7859.134","115.563","1491.535","1470.463"
"GENERATED VIA SPACETRACK.ORG API","JSPOC","3229","COSMOS 220","PAYLOAD","U","68040A","2016-01-08 17:55:47","220384","14.75747995","0.0038974","74.0282","99.6564","267.1338","92.5375","0","999","54863","4.1573e-05","2.52e-06","0","1977763","0 COSMOS 220","1 03229U 68040A   16008.74707431  .00000252  00000-0  41573-4 0  9995","2 03229  74.0282  99.6564 0038974 267.1338  92.5375 14.75747995548636","1968-040A","3229","7020.914","97.577","670.143","615.416"
"GENERATED VIA SPACETRACK.ORG API","JSPOC","18749","SL-14 R/B","ROCKET BODY","U","88001B","2016-01-08 17:56:00","663360","14.82996158","0.00175","82.5141","77.2537","239.2403","260.446","0","999","51259","2.05e-05","1.9e-06","0","1977773","0 SL-14 R/B","1 18749U 88001B   16008.74722990  .00000190  00000-0  20500-4 0  9992","2 18749  82.5141  77.2537 0017500 239.2403 260.4460 14.82996158512596","1988-001B","18749","6998.019","97.100","632.131","607.638"
"GENERATED VIA SPACETRACK.ORG API","JSPOC","27516","DRTS","PAYLOAD","U","02042B","2016-01-08 17:56:07","112256","1.00273129","0.0002937","4.0815","65.242","241.3984","160.8487","0","999","4882","0","-2.34e-06","0","1977823","0 DRTS","1 27516U 02042B   16008.74730454 -.00000234  00000-0  00000+0 0  9997","2 27516   4.0815  65.2420 0002937 241.3984 160.8487  1.00273129 48823","2002-042B","27516","42164.355","1436.077","35798.603","35773.836"
"GENERATED VIA SPACETRACK.ORG API","JSPOC","11320","COSMOS 1091","PAYLOAD","U","79028A","2016-01-08 17:56:08","728800","13.74611478","0.0030149","82.9237","83.847","351.6337","140.4882","0","999","84331","4.1684e-05","5.5e-07","0","1978186","0 COSMOS 1091","1 11320U 79028A   16008.74732325 +.00000055 +00000-0 +41684-4 0  9998","2 11320 082.9237 083.8470 0030149 351.6337 140.4882 13.74611478843313","1979-028A","11320","7361.198","104.756","1005.256","960.870"
"GENERATED VIA SPACETRACK.ORG API","JSPOC","27535","SL-8 R/B","ROCKET BODY","U","02046B","2016-01-08 17:56:12","392160","13.74321524","0.0037992","82.9328","255.8456","86.7298","306.244","0","999","66639","4.8199e-05","6.1e-07","0","1977827","0 SL-8 R/B","1 27535U 02046B   16008.74736565  .00000061  00000-0  48199-4 0  9994","2 27535  82.9328 255.8456 0037992  86.7298 306.2440 13.74321524666392","2002-046B","27535","7362.233","104.778","1012.069","956.128"
"GENERATED VIA SPACETRACK.ORG API","JSPOC","25777","IRIDIUM 14","PAYLOAD","U","99032A","2016-01-08 17:56:28","599936","14.34214562","0.0001938","86.3968","83.6186","97.2299","26.9024","0","999","87928","8.6314e-05","2.61e-06","0","1978186","0 IRIDIUM 14","1 25777U 99032A   16008.74755324 +.00000261 +00000-0 +86314-4 0  9998","2 25777 086.3968 083.6186 0001938 097.2299 026.9024 14.34214562879280","1999-032A","25777","7155.814","100.403","779.066","776.292"
"GENERATED VIA SPACETRACK.ORG API","JSPOC","2403","OPS 0856","PAYLOAD","U","66077A","2016-01-08 17:56:41","189280","8.59896384","0.0029164","90.1539","241.0459","274.2381","85.5139","0","999","19874","-0.013048","-2.5e-07","0","1978186","0 OPS 0856","1  2403U 66077A   16008.74769895 -.00000025 +00000-0 -13048-1 0  9991","2  2403 090.1539 241.0459 0029164 274.2381 085.5139 08.59896384198742","1966-077A","2403","10064.010","167.462","3715.226","3656.525"
"GENERATED VIA SPACETRACK.ORG API","JSPOC","15333","COSMOS 1603","PAYLOAD","U","84106A","2016-01-08 17:56:47","69664","14.14022944","0.002163","71.0274","112.5971","285.0734","74.7995","0","999","61398","0.00018877","3.12e-06","0","1977852","0 COSMOS 1603","1 15333U 84106A   16008.74776701  .00000312  00000-0  18877-3 0  9998","2 15333  71.0274 112.5971 0021630 285.0734  74.7995 14.14022944613984","1984-106A","15333","7223.774","101.837","861.264","830.014"
"GENERATED VIA SPACETRACK.ORG API","JSPOC","22590","COSMOS 2239","PAYLOAD","U","93020A","2016-01-08 17:56:55","600800","13.75358262","0.002418","82.9322","91.5789","132.1126","20.3375","0","999","14269","3.1669e-05","4.6e-07","0","1978186","0 COSMOS 2239","1 22590U 93020A   16008.74786575 +.00000046 +00000-0 +31669-4 0  9995","2 22590 082.9322 091.5789 0024180 132.1126 020.3375 13.75358262142690","1993-020A","22590","7358.533","104.699","998.191","962.605"
"GENERATED VIA SPACETRACK.ORG API","JSPOC","16849","COSMOS 1761","PAYLOAD","U","86050A","2016-01-08 17:57:01","89792","2.00312482","0.5271829","69.613","226.9496","112.2355","108.6518","0","999","21618","0","-7.4e-07","0","1978186","0 COSMOS 1761","1 16849U 86050A   16008.74792928 -.00000074 +00000-0 +00000-0 0  9992","2 16849 069.6130 226.9496 5271829 112.2355 108.6518 02.00312482216185","1986-050A","16849","26582.541","718.876","34218.267","6190.545"
"GENERATED VIA SPACETRACK.ORG API","JSPOC","18113","COSMOS 1852","PAYLOAD","U","87051A","2016-01-08 17:57:10","236096","12.44835358","0.0017302","74.0047","109.6506","212.8965","221.4971","0","999","29799","-3.623e-05","-2.1e-07","0","1978186","0 COSMOS 1852","1 18113U 87051A   16008.74803514 -.00000021 +00000-0 -36230-4 0  9995","2 18113 074.0047 109.6506 0017302 212.8965 221.4971 12.44835358297996","1987-051A","18113","7864.308","115.677","1499.780","1472.567"
"GENERATED VIA SPACETRACK.ORG API","JSPOC","12295","KIKU 3 (ETS 4)","PAYLOAD","U","81012A","2016-01-08 17:57:17","371872","5.48476705","0.5090332","28.4252","164.8045","270.5277","33.9794","0","999","42451","0.00082678","6.065e-05","0","1977834","0 KIKU 3 (ETS 4)","1 12295U 81012A   16008.74811773  .00006065  00000-0  82678-3 0  9995","2 12295  28.4252 164.8045 5090332 270.5277  33.9794  5.48476705424511","1981-012A","12295","13581.978","262.545","14117.522","290.165"
"GENERATED VIA SPACETRACK.ORG API","JSPOC","6393","SL-3 R/B","ROCKET BODY","U","73015B","2016-01-08 17:57:26","373888","14.04943264","0.0057943","81.256","95.0923","307.4815","52.1092","0","999","19294","1.0773e-05","2.9e-07","0","1978186","0 SL-3 R/B","1  6393U 73015B   16008.74822192 +.00000029 +00000-0 +10773-4 0  9990","2  6393 081.2560 095.0923 0057943 307.4815 052.1092 14.04943264192940","1973-015B","6393","7254.864","102.495","918.766","834.692"
"GENERATED VIA SPACETRACK.ORG API","JSPOC","28892","UWE-1","PAYLOAD","U","05043C","2016-01-08 17:57:30","207456","14.63000234","0.0016652","97.8233","189.1803","10.5249","349.6299","0","999","54375","8.5922e-05","3.97e-06","0","1977763","0 UWE-1","1 28892U 05043C   16008.74826629  .00000397  00000-0  85922-4 0  9999","2 28892  97.8233 189.1803 0016652  10.5249 349.6299 14.63000234543753","2005-043C","28892","7061.640","98.427","695.264","671.746"
"GENERATED VIA SPACETRACK.ORG API","JSPOC","2861","SECOR 9 (EGRS 9)","PAYLOAD","U","67065A","2016-01-08 17:57:51","45408","8.36652512","0.0073195","90.1742","303.1604","118.3536","242.4705","0","999","48218","-0.012641","-1.9e-07","0","1978186","0 SECOR 9 (EGRS 9)","1  2861U 67065A   16008.74850747 -.00000019 +00000-0 -12641-1 0  9995","2  2861 090.1742 303.1604 0073195 118.3536 242.4705 08.36652512482186","1967-065A","2861","10249.557","172.114","3946.443","3796.400"
